[{"OBJECT_NAME":"STARLINK-32930","OBJECT_ID":"2025-048W","EPOCH":"2026-03-17T04:09:59.344128","MEAN_MOTION":15.27604222,"ECCENTRICITY":0.00011014,"INCLINATION":43.0021,"RA_OF_ASC_NODE":43.3124,"ARG_OF_PERICENTER":223.5742,"MEAN_ANOMALY":136.5023,"EPHEMERIS_TYPE":0,"CLASSIFICATION_TYPE":"U","NORAD_CAT_ID":63203,"ELEMENT_SET_NO":999,"REV_AT_EPOCH":5823,"BSTAR":0.00061817148,"MEAN_MOTION_DOT":0.000168,"MEAN_MOTION_DDOT":0},{"OBJECT_NAME":"STARLINK-11654 [DTC]","OBJECT_ID":"2025-053A","EPOCH":"2026-03-17T14:00:01.999872","MEAN_MOTION":15.70847532,"ECCENTRICITY":0.00014754,"INCLINATION":42.9999,"RA_OF_ASC_NODE":64.6129,"ARG_OF_PERICENTER":270.2707,"MEAN_ANOMALY":7.5626,"EPHEMERIS_TYPE":0,"CLASSIFICATION_TYPE":"U","NORAD_CAT_ID":63265,"ELEMENT_SET_NO":999,"REV_AT_EPOCH":598,"BSTAR":-7.960838e-5,"MEAN_MOTION_DOT":-0.00010653,"MEAN_MOTION_DDOT":0},{"OBJECT_NAME":"STARLINK-11659 [DTC]","OBJECT_ID":"2025-053B","EPOCH":"2026-03-17T06:35:30.242976","MEAN_MOTION":15.70954503,"ECCENTRICITY":0.00018622,"INCLINATION":42.9993,"RA_OF_ASC_NODE":66.3956,"ARG_OF_PERICENTER":116.3893,"MEAN_ANOMALY":243.7166,"EPHEMERIS_TYPE":0,"CLASSIFICATION_TYPE":"U","NORAD_CAT_ID":63266,"ELEMENT_SET_NO":999,"REV_AT_EPOCH":5886,"BSTAR":0.0013152925,"MEAN_MOTION_DOT":0.00172705,"MEAN_MOTION_DDOT":0},{"OBJECT_NAME":"STARLINK-11653 [DTC]","OBJECT_ID":"2025-053C","EPOCH":"2026-03-17T10:16:50.606400","MEAN_MOTION":15.70896099,"ECCENTRICITY":0.00025682,"INCLINATION":43.0026,"RA_OF_ASC_NODE":65.8432,"ARG_OF_PERICENTER":255.141,"MEAN_ANOMALY":104.9173,"EPHEMERIS_TYPE":0,"CLASSIFICATION_TYPE":"U","NORAD_CAT_ID":63267,"ELEMENT_SET_NO":999,"REV_AT_EPOCH":5888,"BSTAR":0.0013968828,"MEAN_MOTION_DOT":0.00183238,"MEAN_MOTION_DDOT":0},{"OBJECT_NAME":"STARLINK-11641 [DTC]","OBJECT_ID":"2025-053D","EPOCH":"2026-03-17T10:47:15.011520","MEAN_MOTION":15.70967599,"ECCENTRICITY":0.00019961,"INCLINATION":42.9994,"RA_OF_ASC_NODE":65.1188,"ARG_OF_PERICENTER":247.044,"MEAN_ANOMALY":113.0217,"EPHEMERIS_TYPE":0,"CLASSIFICATION_TYPE":"U","NORAD_CAT_ID":63268,"ELEMENT_SET_NO":999,"REV_AT_EPOCH":5889,"BSTAR":0.001374348,"MEAN_MOTION_DOT":0.00180756,"MEAN_MOTION_DDOT":0},{"OBJECT_NAME":"STARLINK-11638 [DTC]","OBJECT_ID":"2025-053E","EPOCH":"2026-03-17T06:20:12.709536","MEAN_MOTION":15.70910891,"ECCENTRICITY":0.00015571,"INCLINATION":42.9979,"RA_OF_ASC_NODE":66.31,"ARG_OF_PERICENTER":258.1993,"MEAN_ANOMALY":101.87,"EPHEMERIS_TYPE":0,"CLASSIFICATION_TYPE":"U","NORAD_CAT_ID":63269,"ELEMENT_SET_NO":999,"REV_AT_EPOCH":5886,"BSTAR":0.0012241154,"MEAN_MOTION_DOT":0.00160161,"MEAN_MOTION_DDOT":0},{"OBJECT_NAME":"STARLINK-11614 [DTC]","OBJECT_ID":"2025-053F","EPOCH":"2026-03-17T07:06:05.010912","MEAN_MOTION":15.70852899,"ECCENTRICITY":0.00014158,"INCLINATION":42.9999,"RA_OF_ASC_NODE":66.5721,"ARG_OF_PERICENTER":254.6671,"MEAN_ANOMALY":105.4041,"EPHEMERIS_TYPE":0,"CLASSIFICATION_TYPE":"U","NORAD_CAT_ID":63270,"ELEMENT_SET_NO":999,"REV_AT_EPOCH":5886,"BSTAR":0.00055478288,"MEAN_MOTION_DOT":0.0007139,"MEAN_MOTION_DDOT":0},{"OBJECT_NAME":"STARLINK-11620 [DTC]","OBJECT_ID":"2025-053G","EPOCH":"2026-03-17T05:57:27.527328","MEAN_MOTION":15.70894814,"ECCENTRICITY":0.0003656,"INCLINATION":42.9981,"RA_OF_ASC_NODE":67.0806,"ARG_OF_PERICENTER":256.4806,"MEAN_ANOMALY":103.5655,"EPHEMERIS_TYPE":0,"CLASSIFICATION_TYPE":"U","NORAD_CAT_ID":63271,"ELEMENT_SET_NO":999,"REV_AT_EPOCH":5885,"BSTAR":0.0012262155,"MEAN_MOTION_DOT":0.00160365,"MEAN_MOTION_DDOT":0},{"OBJECT_NAME":"STARLINK-11619 [DTC]","OBJECT_ID":"2025-053H","EPOCH":"2026-03-17T09:53:55.186656","MEAN_MOTION":15.70997861,"ECCENTRICITY":0.00012959,"INCLINATION":42.999,"RA_OF_ASC_NODE":65.7193,"ARG_OF_PERICENTER":272.69,"MEAN_ANOMALY":87.382,"EPHEMERIS_TYPE":0,"CLASSIFICATION_TYPE":"U","NORAD_CAT_ID":63272,"ELEMENT_SET_NO":999,"REV_AT_EPOCH":5888,"BSTAR":0.0013321985,"MEAN_MOTION_DOT":0.00175302,"MEAN_MOTION_DDOT":0},{"OBJECT_NAME":"STARLINK-11621 [DTC]","OBJECT_ID":"2025-053J","EPOCH":"2026-03-17T06:04:55.183008","MEAN_MOTION":15.70858036,"ECCENTRICITY":0.00016768,"INCLINATION":42.9998,"RA_OF_ASC_NODE":66.2274,"ARG_OF_PERICENTER":267.0317,"MEAN_ANOMALY":93.0359,"EPHEMERIS_TYPE":0,"CLASSIFICATION_TYPE":"U","NORAD_CAT_ID":63273,"ELEMENT_SET_NO":999,"REV_AT_EPOCH":5886,"BSTAR":0.00045201817,"MEAN_MOTION_DOT":0.00058002,"MEAN_MOTION_DDOT":0},{"OBJECT_NAME":"STARLINK-11615 [DTC]","OBJECT_ID":"2025-053K","EPOCH":"2026-03-16T11:08:09.776256","MEAN_MOTION":15.7092804,"ECCENTRICITY":0.0001218,"INCLINATION":42.9988,"RA_OF_ASC_NODE":71.5124,"ARG_OF_PERICENTER":238.7969,"MEAN_ANOMALY":121.278,"EPHEMERIS_TYPE":0,"CLASSIFICATION_TYPE":"U","NORAD_CAT_ID":63274,"ELEMENT_SET_NO":999,"REV_AT_EPOCH":5873,"BSTAR":0.0016966825,"MEAN_MOTION_DOT":0.00224056,"MEAN_MOTION_DDOT":0},{"OBJECT_NAME":"STARLINK-11608 [DTC]","OBJECT_ID":"2025-053L","EPOCH":"2026-03-17T06:27:51.528096","MEAN_MOTION":15.70936569,"ECCENTRICITY":8.408e-5,"INCLINATION":42.9991,"RA_OF_ASC_NODE":66.3577,"ARG_OF_PERICENTER":258.9782,"MEAN_ANOMALY":101.0991,"EPHEMERIS_TYPE":0,"CLASSIFICATION_TYPE":"U","NORAD_CAT_ID":63275,"ELEMENT_SET_NO":999,"REV_AT_EPOCH":5885,"BSTAR":0.0014541599,"MEAN_MOTION_DOT":0.0019127,"MEAN_MOTION_DDOT":0},{"OBJECT_NAME":"STARLINK-11623 [DTC]","OBJECT_ID":"2025-053M","EPOCH":"2026-03-17T05:49:48.821088","MEAN_MOTION":15.7085985,"ECCENTRICITY":8.844e-5,"INCLINATION":42.9957,"RA_OF_ASC_NODE":67.0396,"ARG_OF_PERICENTER":172.665,"MEAN_ANOMALY":187.423,"EPHEMERIS_TYPE":0,"CLASSIFICATION_TYPE":"U","NORAD_CAT_ID":63276,"ELEMENT_SET_NO":999,"REV_AT_EPOCH":5884,"BSTAR":0.00096195206,"MEAN_MOTION_DOT":0.00124958,"MEAN_MOTION_DDOT":0},{"OBJECT_NAME":"STARLINK-33660","OBJECT_ID":"2025-053P","EPOCH":"2026-03-16T15:23:26.747520","MEAN_MOTION":15.27586492,"ECCENTRICITY":0.00015146,"INCLINATION":42.9993,"RA_OF_ASC_NODE":202.7737,"ARG_OF_PERICENTER":267.9338,"MEAN_ANOMALY":92.134,"EPHEMERIS_TYPE":0,"CLASSIFICATION_TYPE":"U","NORAD_CAT_ID":63278,"ELEMENT_SET_NO":999,"REV_AT_EPOCH":5725,"BSTAR":0.0010947315,"MEAN_MOTION_DOT":0.00029991,"MEAN_MOTION_DDOT":0},{"OBJECT_NAME":"STARLINK-33611","OBJECT_ID":"2025-053Q","EPOCH":"2026-03-17T14:08:24.387360","MEAN_MOTION":15.27564365,"ECCENTRICITY":0.0002253,"INCLINATION":43.001,"RA_OF_ASC_NODE":193.5219,"ARG_OF_PERICENTER":254.3,"MEAN_ANOMALY":105.7603,"EPHEMERIS_TYPE":0,"CLASSIFICATION_TYPE":"U","NORAD_CAT_ID":63279,"ELEMENT_SET_NO":999,"REV_AT_EPOCH":5755,"BSTAR":0.0009730261,"MEAN_MOTION_DOT":0.00026598,"MEAN_MOTION_DDOT":0},{"OBJECT_NAME":"STARLINK-33646","OBJECT_ID":"2025-053R","EPOCH":"2026-03-17T01:30:43.320096","MEAN_MOTION":15.27590614,"ECCENTRICITY":0.00011053,"INCLINATION":43.0033,"RA_OF_ASC_NODE":199.9175,"ARG_OF_PERICENTER":253.0434,"MEAN_ANOMALY":107.0297,"EPHEMERIS_TYPE":0,"CLASSIFICATION_TYPE":"U","NORAD_CAT_ID":63280,"ELEMENT_SET_NO":999,"REV_AT_EPOCH":5732,"BSTAR":0.00064732036,"MEAN_MOTION_DOT":0.00017599,"MEAN_MOTION_DDOT":0}]
