STARLINK-32930          
1 63203U 25048W   26076.17360352  .00016800  00000+0  61817-3 0  9991
2 63203  43.0021  43.3124 0001101 223.5742 136.5023 15.27604222 58230
STARLINK-11654 [DTC]    
1 63265U 25053A   26076.58335648 -.00010653  00000+0 -79608-4 0  9990
2 63265  42.9999  64.6129 0001475 270.2707   7.5626 15.70847532  5986
STARLINK-11659 [DTC]    
1 63266U 25053B   26076.27465559  .00172705  00000+0  13153-2 0  9998
2 63266  42.9993  66.3956 0001862 116.3893 243.7166 15.70954503 58869
STARLINK-11653 [DTC]    
1 63267U 25053C   26076.42836350  .00183238  00000+0  13969-2 0  9995
2 63267  43.0026  65.8432 0002568 255.1410 104.9173 15.70896099 58886
STARLINK-11641 [DTC]    
1 63268U 25053D   26076.44947930  .00180756  00000+0  13743-2 0  9997
2 63268  42.9994  65.1188 0001996 247.0440 113.0217 15.70967599 58892
STARLINK-11638 [DTC]    
1 63269U 25053E   26076.26403599  .00160161  00000+0  12241-2 0  9996
2 63269  42.9979  66.3100 0001557 258.1993 101.8700 15.70910891 58864
STARLINK-11614 [DTC]    
1 63270U 25053F   26076.29589133  .00071390  00000+0  55478-3 0  9995
2 63270  42.9999  66.5721 0001415 254.6671 105.4041 15.70852899 58867
STARLINK-11620 [DTC]    
1 63271U 25053G   26076.24823527  .00160365  00000+0  12262-2 0  9993
2 63271  42.9981  67.0806 0003656 256.4806 103.5655 15.70894814 58850
STARLINK-11619 [DTC]    
1 63272U 25053H   26076.41244429  .00175302  00000+0  13322-2 0  9996
2 63272  42.9990  65.7193 0001295 272.6900  87.3820 15.70997861 58889
STARLINK-11621 [DTC]    
1 63273U 25053J   26076.25341647  .00058002  00000+0  45202-3 0  9999
2 63273  42.9998  66.2274 0001676 267.0317  93.0359 15.70858036 58866
STARLINK-11615 [DTC]    
1 63274U 25053K   26075.46400204  .00224056  00000+0  16967-2 0  9996
2 63274  42.9988  71.5124 0001218 238.7969 121.2780 15.70928040 58730
STARLINK-11608 [DTC]    
1 63275U 25053L   26076.26934639  .00191270  00000+0  14542-2 0  9998
2 63275  42.9991  66.3577 0000840 258.9782 101.0991 15.70936569 58854
STARLINK-11623 [DTC]    
1 63276U 25053M   26076.24292617  .00124958  00000+0  96195-3 0  9994
2 63276  42.9957  67.0396 0000884 172.6650 187.4230 15.70859850 58848
STARLINK-33660          
1 63278U 25053P   26075.64128180  .00029991  00000+0  10947-2 0  9993
2 63278  42.9993 202.7737 0001514 267.9338  92.1340 15.27586492 57258
STARLINK-33611          
1 63279U 25053Q   26076.58917115  .00026598  00000+0  97303-3 0  9994
2 63279  43.0010 193.5219 0002253 254.3000 105.7603 15.27564365 57551
STARLINK-33646          
1 63280U 25053R   26076.06300139  .00017599  00000+0  64732-3 0  9992
2 63280  43.0033 199.9175 0001105 253.0434 107.0297 15.27590614 57326
